[{"OBJECT_NAME":"STARLINK-5766","OBJECT_ID":"2023-042AR","EPOCH":"2026-03-09T06:47:42.926208","MEAN_MOTION":15.03167581,"ECCENTRICITY":0.00023892,"INCLINATION":42.9974,"RA_OF_ASC_NODE":45.7717,"ARG_OF_PERICENTER":188.7608,"MEAN_ANOMALY":171.3193,"EPHEMERIS_TYPE":0,"CLASSIFICATION_TYPE":"U","NORAD_CAT_ID":56025,"ELEMENT_SET_NO":999,"REV_AT_EPOCH":16299,"BSTAR":0.005261799,"MEAN_MOTION_DOT":0.00072833,"MEAN_MOTION_DDOT":0},{"OBJECT_NAME":"CZ-6A DEB","OBJECT_ID":"2024-140AF","EPOCH":"2026-03-09T22:09:11.094912","MEAN_MOTION":15.07921552,"ECCENTRICITY":0.0088688,"INCLINATION":88.2867,"RA_OF_ASC_NODE":226.5959,"ARG_OF_PERICENTER":92.2632,"MEAN_ANOMALY":268.8765,"EPHEMERIS_TYPE":0,"CLASSIFICATION_TYPE":"U","NORAD_CAT_ID":60630,"ELEMENT_SET_NO":999,"REV_AT_EPOCH":8531,"BSTAR":0.0046395908,"MEAN_MOTION_DOT":0.00078672,"MEAN_MOTION_DDOT":0}]
